{
  "type": "FeatureCollection",
  "features": [
    {
      "type": "Feature",
      "properties": {
        "norad_id": 33972,
        "name": "COSMOS 2251 DEB",
        "group": "cosmos-2251-debris",
        "lat": -55.73313429715219,
        "lon": -179.22287416819472,
        "alt_km": 753.4740241516693,
        "timestamp": "2025-12-04T13:52:00.834845+00:00",
        "meta_object_name": "COSMOS 2251 DEB",
        "meta_object_id": "1993-036FF",
        "meta_epoch": "2025-12-04T08:00:29.077632",
        "meta_mean_motion": 14.36132323,
        "meta_eccentricity": 0.01229757,
        "meta_inclination": 73.9946,
        "meta_ra_of_asc_node": 206.143,
        "meta_arg_of_pericenter": 15.7677,
        "meta_mean_anomaly": 104.7553,
        "meta_ephemeris_type": 0,
        "meta_classification_type": "U",
        "meta_norad_cat_id": 33972,
        "meta_element_set_no": 999,
        "meta_rev_at_epoch": 86953,
        "meta_bstar": 0.0024762899,
        "meta_mean_motion_dot": 7.846e-05,
        "meta_mean_motion_ddot": 0,
        "tle_line1": "1 33972U 93036FF  25338.33366988  .00007846  00000+0  24763-2 0  9990",
        "tle_line2": "2 33972  73.9946 206.1430 0122975  15.7677 104.7553 14.36132323869533"
      },
      "geometry": {
        "type": "Point",
        "coordinates": [
          -179.22287416819472,
          -55.73313429715219
        ]
      }
    },
    {
      "type": "Feature",
      "properties": {
        "norad_id": 33973,
        "name": "COSMOS 2251 DEB",
        "group": "cosmos-2251-debris",
        "lat": 35.76594059609063,
        "lon": -73.79042125961841,
        "alt_km": 768.522156556669,
        "timestamp": "2025-12-04T13:52:00.834855+00:00",
        "meta_object_name": "COSMOS 2251 DEB",
        "meta_object_id": "1993-036FG",
        "meta_epoch": "2025-12-04T02:08:50.177760",
        "meta_mean_motion": 14.45375882,
        "meta_eccentricity": 0.00471452,
        "meta_inclination": 74.0072,
        "meta_ra_of_asc_node": 119.0433,
        "meta_arg_of_pericenter": 299.0851,
        "meta_mean_anomaly": 183.7428,
        "meta_ephemeris_type": 0,
        "meta_classification_type": "U",
        "meta_norad_cat_id": 33973,
        "meta_element_set_no": 999,
        "meta_rev_at_epoch": 88475,
        "meta_bstar": 0.00027647323,
        "meta_mean_motion_dot": 9.57e-06,
        "meta_mean_motion_ddot": 0,
        "tle_line1": "1 33973U 93036FG  25338.08946965  .00000957  00000+0  27647-3 0  9993",
        "tle_line2": "2 33973  74.0072 119.0433 0047145 299.0851 183.7428 14.45375882884755"
      },
      "geometry": {
        "type": "Point",
        "coordinates": [
          -73.79042125961841,
          35.76594059609063
        ]
      }
    },
    {
      "type": "Feature",
      "properties": {
        "norad_id": 33975,
        "name": "COSMOS 2251 DEB",
        "group": "cosmos-2251-debris",
        "lat": -35.27277848497215,
        "lon": 86.93477530807608,
        "alt_km": 895.7614077178969,
        "timestamp": "2025-12-04T13:52:00.834866+00:00",
        "meta_object_name": "COSMOS 2251 DEB",
        "meta_object_id": "1993-036FJ",
        "meta_epoch": "2025-12-04T02:02:40.644096",
        "meta_mean_motion": 14.00493924,
        "meta_eccentricity": 0.01914614,
        "meta_inclination": 73.8012,
        "meta_ra_of_asc_node": 99.6655,
        "meta_arg_of_pericenter": 233.8788,
        "meta_mean_anomaly": 124.4492,
        "meta_ephemeris_type": 0,
        "meta_classification_type": "U",
        "meta_norad_cat_id": 33975,
        "meta_element_set_no": 999,
        "meta_rev_at_epoch": 85708,
        "meta_bstar": 0.0012531514,
        "meta_mean_motion_dot": 2.154e-05,
        "meta_mean_motion_ddot": 0,
        "tle_line1": "1 33975U 93036FJ  25338.08519264  .00002154  00000+0  12532-2 0  9990",
        "tle_line2": "2 33975  73.8012  99.6655 0191461 233.8788 124.4492 14.00493924857081"
      },
      "geometry": {
        "type": "Point",
        "coordinates": [
          86.93477530807608,
          -35.27277848497215
        ]
      }
    },
    {
      "type": "Feature",
      "properties": {
        "norad_id": 33980,
        "name": "COSMOS 2251 DEB",
        "group": "cosmos-2251-debris",
        "lat": -66.05347660151249,
        "lon": -64.87078855472406,
        "alt_km": 686.9350717929547,
        "timestamp": "2025-12-04T13:52:00.834876+00:00",
        "meta_object_name": "COSMOS 2251 DEB",
        "meta_object_id": "1993-036FP",
        "meta_epoch": "2025-12-03T09:00:56.287872",
        "meta_mean_motion": 14.58540369,
        "meta_eccentricity": 0.0029211,
        "meta_inclination": 74.0217,
        "meta_ra_of_asc_node": 77.2408,
        "meta_arg_of_pericenter": 223.7972,
        "meta_mean_anomaly": 198.3757,
        "meta_ephemeris_type": 0,
        "meta_classification_type": "U",
        "meta_norad_cat_id": 33980,
        "meta_element_set_no": 999,
        "meta_rev_at_epoch": 88658,
        "meta_bstar": 0.0012434,
        "meta_mean_motion_dot": 5.789e-05,
        "meta_mean_motion_ddot": 0,
        "tle_line1": "1 33980U 93036FP  25337.37565148  .00005789  00000+0  12434-2 0  9997",
        "tle_line2": "2 33980  74.0217  77.2408 0029211 223.7972 198.3757 14.58540369886581"
      },
      "geometry": {
        "type": "Point",
        "coordinates": [
          -64.87078855472406,
          -66.05347660151249
        ]
      }
    },
    {
      "type": "Feature",
      "properties": {
        "norad_id": 33982,
        "name": "COSMOS 2251 DEB",
        "group": "cosmos-2251-debris",
        "lat": 56.412678842301325,
        "lon": 40.956389982543016,
        "alt_km": 634.0128040524687,
        "timestamp": "2025-12-04T13:52:00.834886+00:00",
        "meta_object_name": "COSMOS 2251 DEB",
        "meta_object_id": "1993-036FR",
        "meta_epoch": "2025-12-04T03:58:59.556576",
        "meta_mean_motion": 14.60164283,
        "meta_eccentricity": 0.00748269,
        "meta_inclination": 74.0713,
        "meta_ra_of_asc_node": 16.2697,
        "meta_arg_of_pericenter": 63.2658,
        "meta_mean_anomaly": 352.9778,
        "meta_ephemeris_type": 0,
        "meta_classification_type": "U",
        "meta_norad_cat_id": 33982,
        "meta_element_set_no": 999,
        "meta_rev_at_epoch": 89034,
        "meta_bstar": 0.00069655665,
        "meta_mean_motion_dot": 3.46e-05,
        "meta_mean_motion_ddot": 0,
        "tle_line1": "1 33982U 93036FR  25338.16596709  .00003460  00000+0  69656-3 0  9997",
        "tle_line2": "2 33982  74.0713  16.2697 0074826  63.2658 352.9778 14.60164283890347"
      },
      "geometry": {
        "type": "Point",
        "coordinates": [
          40.956389982543016,
          56.412678842301325
        ]
      }
    },
    {
      "type": "Feature",
      "properties": {
        "norad_id": 33983,
        "name": "COSMOS 2251 DEB",
        "group": "cosmos-2251-debris",
        "lat": -73.89125159643491,
        "lon": 80.341760200178,
        "alt_km": 715.4727860384428,
        "timestamp": "2025-12-04T13:52:00.834895+00:00",
        "meta_object_name": "COSMOS 2251 DEB",
        "meta_object_id": "1993-036FS",
        "meta_epoch": "2025-12-04T06:49:20.535744",
        "meta_mean_motion": 14.50616371,
        "meta_eccentricity": 0.00214048,
        "meta_inclination": 74.0487,
        "meta_ra_of_asc_node": 162.9258,
        "meta_arg_of_pericenter": 266.7664,
        "meta_mean_anomaly": 273.2047,
        "meta_ephemeris_type": 0,
        "meta_classification_type": "U",
        "meta_norad_cat_id": 33983,
        "meta_element_set_no": 999,
        "meta_rev_at_epoch": 88506,
        "meta_bstar": 0.0010486108,
        "meta_mean_motion_dot": 4.101e-05,
        "meta_mean_motion_ddot": 0,
        "tle_line1": "1 33983U 93036FS  25338.28426546  .00004101  00000+0  10486-2 0  9991",
        "tle_line2": "2 33983  74.0487 162.9258 0021404 266.7664 273.2047 14.50616371885065"
      },
      "geometry": {
        "type": "Point",
        "coordinates": [
          80.341760200178,
          -73.89125159643491
        ]
      }
    },
    {
      "type": "Feature",
      "properties": {
        "norad_id": 33984,
        "name": "COSMOS 2251 DEB",
        "group": "cosmos-2251-debris",
        "lat": -71.98781446046257,
        "lon": -59.010233727813144,
        "alt_km": 675.7528657631028,
        "timestamp": "2025-12-04T13:52:00.834905+00:00",
        "meta_object_name": "COSMOS 2251 DEB",
        "meta_object_id": "1993-036FT",
        "meta_epoch": "2025-12-04T03:01:54.587136",
        "meta_mean_motion": 14.66243475,
        "meta_eccentricity": 0.00236225,
        "meta_inclination": 74.0096,
        "meta_ra_of_asc_node": 3.7335,
        "meta_arg_of_pericenter": 204.0269,
        "meta_mean_anomaly": 212.0614,
        "meta_ephemeris_type": 0,
        "meta_classification_type": "U",
        "meta_norad_cat_id": 33984,
        "meta_element_set_no": 999,
        "meta_rev_at_epoch": 88940,
        "meta_bstar": 0.0017448744,
        "meta_mean_motion_dot": 9.636e-05,
        "meta_mean_motion_ddot": 0,
        "tle_line1": "1 33984U 93036FT  25338.12632624  .00009636  00000+0  17449-2 0  9995",
        "tle_line2": "2 33984  74.0096   3.7335 0023622 204.0269 212.0614 14.66243475889401"
      },
      "geometry": {
        "type": "Point",
        "coordinates": [
          -59.010233727813144,
          -71.98781446046257
        ]
      }
    }
  ]
}